OUFTI-1                 
1 41458U 16025C   22183.73386082  .00009127  00000+0  38631-3 0  9991
2 41458  98.1882 351.4860 0141073 212.6583 146.5866 15.14772657339893
E-ST@R-II               
1 41459U 16025D   22184.09108802  .00005694  00000+0  24835-3 0  9990
2 41459  98.1863 350.4035 0144255 215.8367 143.3115 15.13664376339862
AAUSAT 4                
1 41460U 16025E   22184.47582111  .00012351  00000+0  47090-3 0  9999
2 41460  98.1776 357.1612 0124882 190.1537 169.7226 15.19789424340371
AIST-2D (RS-48)         
1 41465U 16026B   22183.25451700  .00005771  00000+0  13818-3 0  9998
2 41465  97.0541  59.1044 0011546  81.3541  45.9094 15.41748770345816
NUSAT-1 (FRESCO)        
1 41557U 16033B   22184.22190854  .00005977  00000+0  17827-3 0  9998
2 41557  97.3898 281.9487 0009315 326.9444 116.7825 15.34991256339805
NUSAT-2 (BATATA)        
1 41558U 16033C   22184.48668138  .00005758  00000+0  16182-3 0  9992
2 41558  97.4098 288.0038 0008786 314.0426 109.3930 15.36889449340111
CARTOSAT-2C             
1 41599U 16040A   22184.48779620  .00001869  00000+0  91809-4 0  9993
2 41599  97.4861 243.9511 0014953 125.4545 358.7628 15.19224746334367
SATHYABAMASAT           
1 41600U 16040B   22183.88420160  .00011072  00000+0  34631-3 0  9997
2 41600  97.2183 235.9414 0012671  72.0414 288.2209 15.33222886335266
LAPAN-A3                
1 41603U 16040E   22184.22335216  .00000737  00000+0  36428-4 0  9999
2 41603  97.2044 220.5648 0014880 103.3120 321.6869 15.20707773334431
BIROS                   
1 41604U 16040F   22183.88558221  .00001918  00000+0  80834-4 0  9996
2 41604  97.2096 227.7109 0013465  80.8764 279.3997 15.24424144334816
SWAYAM                  
1 41607U 16040J   22184.10499292  .00010512  00000+0  33840-3 0  9991
2 41607  97.2134 234.4195 0012573  72.4116 287.8499 15.32315848335179
BEESAT-4                
1 41619U 16040W   22183.86375396  .00008732  00000+0  28920-3 0  9998
2 41619  97.2150 234.0838 0010903  69.1551 291.0857 15.31476130323084
3CAT-2                  
1 41732U 16051B   22183.75377936  .00005227  00000+0  16217-3 0  9998
2 41732  97.3843 106.8428 0009282 231.7185 188.8576 15.33803297327679
PRATHAM                 
1 41783U 16059A   22183.67538691  .00000206  00000+0  48367-4 0  9994
2 41783  97.9120 224.6202 0034652 124.6134 235.8345 14.63368704307857
ALSAT 1N                
1 41789U 16059G   22183.65285588  .00000396  00000+0  82516-4 0  9996
2 41789  97.9162 229.2061 0029575 107.8009 252.6418 14.64704449308091
LISHUI 1-01             
1 41845U 16066E   22184.49666458  .00017215  00000+0  17348-2 0  9996
2 41845  98.7393 316.8263 0214452  18.6077 342.2774 14.75594517299196
CARTOSAT-2D             
1 41948U 17008A   22183.90571533  .00001649  00000+0  81565-4 0  9999
2 41948  97.4640 243.3806 0005307 269.1954  90.8594 15.19208626298144
NAYIF-1 (EO-88)         
1 42017U 17008BX  22183.75494329  .00010505  00000+0  31123-3 0  9992
2 42017  97.2676 249.6500 0005564 171.3127 188.8214 15.35026780299426
ZHUHAI-1 02 (CAS-4B)    
1 42759U 17034B   22184.49883095  .00001672  00000+0  10851-3 0  9998
2 42759  43.0171 244.2552 0008691  20.5075  72.4750 15.12007520278782
ZHUHAI-1 01 (CAS-4A)    
1 42761U 17034D   22184.54194859  .00001575  00000+0  10274-3 0  9991
2 42761  43.0174 242.7880 0009214  23.2965 114.8847 15.12092314278799
UCLSAT                  
1 42765U 17036A   22183.89001579  .00006706  00000+0  23280-3 0  9992
2 42765  97.1954 226.0727 0007276 265.5294  94.5116 15.30067912280215
NIUSAT                  
1 42766U 17036B   22183.60367400  .00004574  00000+0  17729-3 0  9992
2 42766  97.2001 220.8847 0011519 272.7154  87.2767 15.26568724279115
CARTOSAT-2E             
1 42767U 17036C   22184.46859391  .00001734  00000+0  85598-4 0  9998
2 42767  97.4532 244.7622 0006354 332.4607 122.8077 15.19216936278791
LITUANICASAT-2          
1 42768U 17036D   22183.84249881  .00015628  00000+0  44442-3 0  9996
2 42768  97.2038 228.8714 0008807 240.4311 119.6056 15.36192705279610
AALTO-1                 
1 42775U 17036L   22183.84574575  .00003415  00000+0  13619-3 0  9998
2 42775  97.1959 221.0163 0010499 271.2286  88.7750 15.25793453279123
URSA MAIOR              
1 42776U 17036M   22183.88656412  .00003969  00000+0  15518-3 0  9998
2 42776  97.1970 221.7989 0010154 269.4258  90.5818 15.26367446279166
COMPASS 2               
1 42777U 17036N   22183.83449140  .00010969  00000+0  34634-3 0  9990
2 42777  97.2026 228.1635 0007725 247.3939 112.6487 15.32974875279503
MAX VALIER SAT          
1 42778U 17036P   22184.11502655  .00005029  00000+0  19107-3 0  9993
2 42778  97.2032 224.6789 0008712 268.8059  91.2182 15.27209719279292
PEGASUS                 
1 42784U 17036V   22183.62484923  .00006156  00000+0  22000-3 0  9990
2 42784  97.1971 225.0666 0008104 271.4077  88.6235 15.29148047279336
NUDTSAT                 
1 42787U 17036Y   22183.95517448  .00010742  00000+0  32723-3 0  9997
2 42787  97.2008 229.5955 0006792 250.9696 109.0811 15.34127752279470
SUCHAI                  
1 42788U 17036Z   22183.79910719  .00008423  00000+0  28366-3 0  9999
2 42788  97.1978 226.9079 0007351 262.6080  97.4327 15.30978127279538
SKCUBE                  
1 42789U 17036AA  22183.86877062  .00007042  00000+0  24334-3 0  9998
2 42789  97.1976 226.4259 0007417 264.4374  95.6021 15.30200907279435
VZLUSAT-1               
1 42790U 17036AB  22183.63794186  .00011375  00000+0  34808-3 0  9991
2 42790  97.2003 229.2531 0006462 251.3664 108.6878 15.33971747279579
ROBUSTA-1B              
1 42792U 17036AD  22183.81927152  .00007481  00000+0  25420-3 0  9997
2 42792  97.1976 226.9505 0006981 264.0978  95.9468 15.30727445279472
D-SAT                   
1 42794U 17036AF  22183.89948637  .00001718  00000+0  14852-3 0  9992
2 42794  97.4507 188.4935 0123956  34.1913 326.7211 14.92701082273788
NORSAT 2                
1 42828U 17042D   22184.51323872  .00000689  00000+0  71485-4 0  9997
2 42828  97.4285  39.9742 0012815 315.7809  44.2387 14.92876525270540
TECHNOSAT               
1 42829U 17042E   22184.51591040  .00000435  00000+0  48084-4 0  9990
2 42829  97.4196  37.7161 0012859 319.1940  40.8316 14.91894882270487
2017-042F               
1 42830U 17042F   22183.85734074  .00001894  00000+0  17761-3 0  9991
2 42830  97.4332  41.5746 0012150 309.5865  50.4283 14.95078607270580
FLYING LAPTOP           
1 42831U 17042G   22183.88966551  .00000975  00000+0  10167-3 0  9994
2 42831  97.4218  37.4491 0012751 321.6393  38.3940 14.91810867270395
CORVUS BC2              
1 42846U 17042X   22183.83151962  .00000570  00000+0  59914-4 0  9992
2 42846  97.4215  40.2700 0008180 312.6469  47.4061 14.92929093270576
CORVUS BC1              
1 42847U 17042Y   22183.84401336  .00000356  00000+0  39269-4 0  9990
2 42847  97.4215  40.5902 0007811 311.8083  48.2470 14.93033221270581
SIMPL                   
1 42983U 98067NF  22184.46325829  .00207523  30647-4  29338-3 0  9993
2 42983  51.6258  95.8131 0001744  86.8214 273.2998 16.05232999267503
CZ-4C R/B               
1 43012U 17072C   22183.73015000  .00000082  00000+0  28684-4 0  9990
2 43012  98.6961 220.5024 0126015 270.8038  87.8722 14.56356488246083
RADFXSAT (FOX-1B)       
1 43017U 17073E   22184.44760492  .00001755  00000+0  13510-3 0  9996
2 43017  97.6736  77.9870 0249444 135.2192 226.9457 14.81468063249486
EAGLESAT 1              
1 43018U 17073F   22183.69231289  .00003019  00000+0  22088-3 0  9995
2 43018  97.6766  79.0858 0242141 131.5060 230.7214 14.83736509249354
INS-1C                  
1 43116U 18004F   22184.46988359  .00006680  00000+0  23071-3 0  9992
2 43116  97.3753 260.3796 0006010 298.9382  61.1256 15.30260739248788
FLOCK 3P'-3             
1 43119U 18004J   22183.82961026  .00002649  00000+0  10185-3 0  9999
2 43119  97.3746 257.7093 0007620 316.3870  43.6766 15.27271171248563
FLOCK 3P'-2             
1 43120U 18004K   22183.84085992  .00003014  00000+0  11701-3 0  9994
2 43120  97.3751 257.3256 0007470 318.6589  41.4084 15.26847264248530
FLOCK 3P'-1             
1 43121U 18004L   22184.17394344  .00015975  00000+0  44043-3 0  9990
2 43121  97.3769 262.7651 0004914 280.2367  79.8323 15.37187591248855
FLOCK 3P'-4             
1 43122U 18004M   22184.48250336  .00003073  00000+0  11918-3 0  9998
2 43122  97.3758 258.1302 0007378 318.3325  41.7351 15.26857819248630
MICROMAS-2A             
1 43131U 18004W   22183.78645218  .00015650  00000+0  43635-3 0  9992
2 43131  97.3752 263.1064 0004421 290.1083  69.9685 15.36842203248936
PICSAT                  
1 43132U 18004X   22183.45475749  .00007055  00000+0  23268-3 0  9997
2 43132  97.3716 259.7526 0005824 310.3197  49.7535 15.31734801248704
CNUSAIL-1               
1 43133U 18004Y   22183.74720447  .00004890  00000+0  17707-3 0  9993
2 43133  97.3671 257.9587 0006698 315.9844  44.0862 15.28844066248636
2018-004Z               
1 43134U 18004Z   22183.72934723  .00006482  00000+0  22241-3 0  9994
2 43134  97.3698 259.2759 0006141 311.8423  48.2293 15.30485041248690
FOX-1D (AO-92)          
1 43137U 18004AC  22183.86216339  .00005365  00000+0  18944-3 0  9992
2 43137  97.3679 258.8817 0006079 314.3690  45.7052 15.29628631248705
STEP CUBE LAB           
1 43138U 18004AD  22183.79557355  .00011734  00000+0  34954-3 0  9997
2 43138  97.3750 262.4590 0004731 302.5088  57.5698 15.34834308248891
XIAOXIANG-2             
1 43155U 18008A   22184.48444887  .00003798  00000+0  20306-3 0  9999
2 43155  97.3515 242.3682 0018038  90.7026  33.4969 15.15523424245705
ZHOU ENLAI              
1 43156U 18008B   22184.49996767  .00004009  00000+0  21566-3 0  9995
2 43156  97.3568 242.2634 0015292  90.8084  22.2066 15.15315257245633
QUANTUTONG 1            
1 43158U 18008D   22184.43101497  .00003472  00000+0  19298-3 0  9991
2 43158  97.3523 240.1438 0014732  90.4995  37.8419 15.14246502245527
